EUTELSAT 115 WEST B     
1 40425U 15010B   24241.38933214 -.00000040  00000+0  00000+0 0  9991
2 40425   0.0088 260.6605 0000132 243.4824 218.2111  1.00272347 34796
EXPRESS-AM7             
1 40505U 15012A   24244.57612998  .00000134  00000+0  00000+0 0  9992
2 40505   0.0140 111.2228 0002430  60.1985  56.1930  1.00273377 34445
IRNSS-1D                
1 40547U 15018A   24243.94653098 -.00000276  00000+0  00000+0 0  9998
2 40547  27.3419 251.4105 0020028 196.0030 344.7326  1.00271622 34419
BEIDOU-3S IGSO-1S       
1 40549U 15019A   24244.63490794 -.00000158  00000+0  00000+0 0  9999
2 40549  50.4305 303.2994 0036651 196.2732 164.8187  1.00289490 34513
THOR 7                  
1 40613U 15022A   24244.43198014 -.00000025  00000+0  00000+0 0  9996
2 40613   0.0239 229.2026 0002509 293.6101 332.1317  1.00270965 34255
TURKMENALEM52E/MONACOSAT
1 40617U 15023A   24244.57847575  .00000087  00000+0  00000+0 0  9996
2 40617   0.0247 104.4819 0002314  72.1949  63.8052  1.00273204 34282
DIRECTV 15              
1 40663U 15026A   24244.55902554 -.00000119  00000+0  00000+0 0  9994
2 40663   0.0253 100.0747 0000307 112.7856 225.7489  1.00272674 33901
SKY MEXICO-1            
1 40664U 15026B   24244.51854914 -.00000250  00000+0  00000+0 0  9993
2 40664   0.0222 126.9067 0001988  43.3799 277.8121  1.00269770 33882
METEOSAT-11 (MSG-4)     
1 40732U 15034A   24244.57004837  .00000046  00000+0  00000+0 0  9997
2 40732   1.5637  70.4401 0000930 170.7434 313.5598  1.00268312   663
STAR ONE C4             
1 40733U 15034B   24240.26232878 -.00000277  00000+0  00000+0 0  9995
2 40733   0.0313  42.0648 0001013 105.1105 213.2383  1.00270380 33412
WGS F7 (USA 263)        
1 40746U 15036A   24244.03799564  .00000001  00000+0  00000+0 0  9994
2 40746   0.0148 137.3770 0000263  53.5119 337.4942  1.00271019 33301
INTELSAT 34 (IS-34)     
1 40874U 15039A   24242.48938250 -.00000301  00000+0  00000+0 0  9997
2 40874   0.0164  21.5676 0001141 345.5570  91.7200  1.00270144 33047
EUTELSAT 8 WEST B       
1 40875U 15039B   24244.41924358 -.00000082  00000+0  00000+0 0  9993
2 40875   0.0671   3.2719 0003350 157.5708 322.1676  1.00271989 33084
GSAT-6                  
1 40880U 15041A   24244.53868782 -.00000177  00000+0  00000+0 0  9998
2 40880   0.2171  94.0101 0002974  71.2265  91.3930  1.00272925 33035
INMARSAT 5-F3           
1 40882U 15042A   24243.81699233  .00000033  00000+0  00000+0 0  9994
2 40882   0.0157 120.5979 0000026 136.0711 196.4850  1.00271317 32984
MUOS-4                  
1 40887U 15044A   24244.58290664 -.00000107  00000+0  00000+0 0  9994
2 40887   3.2096  33.8016 0052908   1.8644 229.4159  1.00272490 32997
TJS-1                   
1 40892U 15046A   24244.56879875 -.00000173  00000+0  00000+0 0  9990
2 40892   0.1099 278.6188 0004137  94.8239 326.4441  1.00274592 32991
EXPRESS-AM8             
1 40895U 15048A   24244.42231392 -.00000128  00000+0  00000+0 0  9996
2 40895   0.0182 226.4125 0000146 102.4519 149.2431  1.00271762 32784
BEIDOU-3S IGSO-2S       
1 40938U 15053A   24244.46104209 -.00000086  00000+0  00000+0 0  9993
2 40938  50.2418 266.5221 0053360 189.6715 144.8822  1.00289572 32787
SKY MUSTER 1 (NBN1A)    
1 40940U 15054A   24243.47910281 -.00000296  00000+0  00000+0 0  9995
2 40940   0.0116 197.2210 0001627 324.3461 130.2997  1.00271417 32681
ARSAT 2                 
1 40941U 15054B   24243.90830362 -.00000241  00000+0  00000+0 0  9995
2 40941   0.0245  70.5399 0001817  84.9831  70.0209  1.00270764 32745
MORELOS 3               
1 40946U 15056A   24244.54359449 -.00000056  00000+0  00000+0 0  9999
2 40946   2.9986 354.5018 0003348 181.8691 246.4164  1.00272105 32726
APSTAR-9                
1 40982U 15059A   24244.54257750 -.00000283  00000+0  00000+0 0  9996
2 40982   0.0209 129.5151 0003825  73.2190 114.8113  1.00268176 32555
TURKSAT 4B              
1 40984U 15060A   24243.43360410  .00000097  00000+0  00000+0 0  9997
2 40984   0.0213  95.9668 0003305  24.2943  64.9543  1.00276417 32522
ZHONGXING-2C            
1 41021U 15063A   24244.64125878 -.00000340  00000+0  00000+0 0  9996
2 41021   0.0365  94.9483 0003263  50.6169 168.9981  1.00272892 32437
GSAT-15                 
1 41028U 15065A   24244.63332562 -.00000274  00000+0  00000+0 0  9990
2 41028   0.0997 275.0726 0001891 217.9893 168.7444  1.00271072 32233
BADR-7 (ARABSAT-6B)     
1 41029U 15065B   24244.57334981  .00000128  00000+0  00000+0 0  9998
2 41029   0.0470 237.3015 0005953 341.4954 353.8242  1.00270114 32202
LAOSAT 1                
1 41034U 15067A   24244.55604774 -.00000359  00000+0  00000+0 0  9991
2 41034   0.0180 109.3435 0001951 346.6066 212.9474  1.00273630 32292
TELSTAR 12V             
1 41036U 15068A   24244.41924358 -.00000135  00000+0  00000+0 0  9994
2 41036   0.0148 117.4828 0002062  44.4051 314.1173  1.00272019 32061
ELEKTRO-L 2             
1 41105U 15074A   24244.42214016 -.00000132  00000+0  00000+0 0  9999
2 41105   5.0296  78.5465 0002569 155.5133 243.4862  1.00271300 31945
COSMOS 2513             
1 41121U 15075A   24243.36809627 -.00000155  00000+0  00000+0 0  9993
2 41121   0.0453 107.2908 0000550  46.0914  38.4093  1.00270583 31966
EXPRESS-AMU1            
1 41191U 15082A   24244.57534806  .00000139  00000+0  00000+0 0  9997
2 41191   0.0226 143.6918 0002121  26.9860  52.7952  1.00267652 31707
GAOFEN-4                
1 41194U 15083A   24244.64302647 -.00000351  00000+0  00000+0 0  9992
2 41194   0.0688 109.8326 0001565 126.1935  81.4726  1.00269848 31961
BELINTERSAT-1           
1 41238U 16001A   24244.57838887  .00000090  00000+0  00000+0 0  9993
2 41238   0.0175  47.1821 0000555  92.6496 100.1121  1.00272186 31677
IRNSS-1E                
1 41241U 16003A   24242.94516116 -.00000306  00000+0  00000+0 0  9997
2 41241  31.7971  72.3750 0020170 178.7542 179.4565  1.00267237 31492
EUTELSAT 9B             
1 41310U 16005A   24244.56996148  .00000046  00000+0  00000+0 0  9993
2 41310   0.0397  70.5844 0002693 135.8433 347.9652  1.00273202 31552
SES-9                   
1 41380U 16013A   24243.62934476 -.00000362  00000+0  00000+0 0  9993
2 41380   0.0499 292.8537 0001732 201.1426 180.1445  1.00270765 30863
EUTELSAT 65 WEST A      
1 41382U 16014A   24244.55519182 -.00000292  00000+0  00000+0 0  9994
2 41382   0.0518 339.2412 0002038 181.9004 313.7389  1.00273601 30977
IRNSS-1F                
1 41384U 16015A   24244.29424410  .00000141  00000+0  00000+0 0  9999
2 41384   3.7406 115.1006 0019247 174.5925 188.6460  1.00270299 31100
BEIDOU-2 IGSO-6         
1 41434U 16021A   24241.93057969 -.00000125  00000+0  00000+0 0  9994
2 41434  59.2872  44.6118 0049211 221.1316 139.5646  1.00257918 30895
IRNSS-1G                
1 41469U 16027A   24244.53911767 -.00000351  00000+0  00000+0 0  9993
2 41469   3.6092 116.2480 0005468   1.8353 185.7774  1.00275389 30615
JCSAT-2B                
1 41471U 16028A   24244.45415524 -.00000182  00000+0  00000+0 0  9990
2 41471   0.0134 123.2326 0000940  48.2155 126.1448  1.00270659 30553
THAICOM 8               
1 41552U 16031A   24244.54980075 -.00000139  00000+0  00000+0 0  9994
2 41552   0.0633  39.6455 0001469 104.2763 112.7810  1.00272560 30158
INTELSAT 31 (IS-31)     
1 41581U 16035A   24243.18931957 -.00000166  00000+0  00000+0 0  9994
2 41581   0.0089 131.0177 0001479  67.8541 113.0726  1.00263843 30112
BEIDOU-2 G7             
1 41586U 16037A   24244.64731480 -.00000370  00000+0  00000+0 0  9999
2 41586   1.5578  65.5433 0006979 357.6583 260.7162  1.00271613   326
ABS-2A (MONGOLSAT-1)    
1 41588U 16038A   24243.36687994 -.00000101  00000+0  00000+0 0  9992
2 41588   0.0216 118.6573 0001302 354.2216  72.9629  1.00269766 30136
EUTELSAT 117 WEST B     
1 41589U 16038B   24243.99354941 -.00000028  00000+0  00000+0 0  9993
2 41589   0.0133 342.5049 0000469 114.9410 122.8834  1.00270658 30103
BRISAT                  
1 41591U 16039A   24241.30764256 -.00000211  00000+0  00000+0 0  9998
2 41591   0.0120 145.4204 0002042  16.0053  76.8292  1.00271365 30011
ECHOSTAR 18             
1 41592U 16039B   24242.49493685 -.00000298  00000+0  00000+0 0  9990
2 41592   0.0133 122.9251 0001438  46.0780 285.9964  1.00271157 30036
MUOS-5                  
1 41622U 16041A   24244.54960462 -.00000179  00000+0  00000+0 0  9995
2 41622   3.7043 296.8009 0199751 253.9864 242.3302  1.00273406 30526
TIANTONG-1 1            
1 41725U 16048A   24244.63916782 -.00000333  00000+0  00000+0 0  9994
2 41725   2.7321  31.8658 0000950 256.3245  23.6124  1.00271624 29707
JCSAT-16                
1 41729U 16050A   24243.95287326 -.00000268  00000+0  00000+0 0  9997
2 41729   0.0040 137.6837 0001326 339.1274 349.7803  1.00270819 29503
USA 270                 
1 41744U 16052A   24234.93125000 -.00000291  00000+0  00000+0 0  9990
2 41744   2.4817  85.6903 0000313  82.4048 237.8685  1.00144883 21469
USA 271                 
1 41745U 16052B   24235.34150324 -.00000044  00000+0  00000+0 0  9990
2 41745   2.4590  85.6907 0006990 250.1762 286.4711  1.00274226   749
INTELSAT 36 (IS-36)     
1 41747U 16053A   24243.21646664 -.00000041  00000+0  00000+0 0  9992
2 41747   0.0123  77.0992 0001860 283.5565 124.6550  1.00271302 29374
INTELSAT 33E (IS-33E)   
1 41748U 16053B   24244.58003959  .00000033  00000+0  00000+0 0  9998
2 41748   0.0176 114.8944 0002309  54.3583  79.7854  1.00272860 29684
INSAT-3DR               
1 41752U 16054A   24243.43838251 -.00000094  00000+0  00000+0 0  9996
2 41752   0.0121 125.5218 0011803 136.9762 308.4374  1.00271640 29243
GSAT-18                 
1 41793U 16060A   24243.36687994 -.00000094  00000+0  00000+0 0  9996
2 41793   0.0534 269.6546 0001451 245.8391  29.6175  1.00271663 28959
SKY MUSTER 2 (NBN1B)    
1 41794U 16060B   24244.16764155 -.00000261  00000+0  00000+0 0  9997
2 41794   0.0120 205.0932 0001414 317.1557  22.7172  1.00271509 28950
